start=new Date('2023-06-25T00:00:00.000Z').valueOf();
sats=[{"ECCENTRICITY":"0.00007830","MEAN_MOTION_DDOT":"0.0000000000000","TLE_LINE1":"1 49761U 21115AP  23175.19657875  .00000756  00000-0  65600-4 0  9992","DECAY_DATE":null,"TIME_SYSTEM":"UTC","INCLINATION":"53.2161","BSTAR":"0.00006560000000","REF_FRAME":"TEME","MEAN_MOTION_DOT":"0.00000756","CLASSIFICATION_TYPE":"U","MEAN_MOTION":"15.08835266","RA_OF_ASC_NODE":"261.1283","TLE_LINE2":"2 49761  53.2161 261.1283 0000783  71.9558 288.1520 15.08835266 87402","OBJECT_TYPE":"PAYLOAD","EPOCH":"2023-06-24T04:43:04.404000","PERIAPSIS":"539.218","MEAN_ELEMENT_THEORY":"SGP4","FILE":"3941347","RCS_SIZE":"LARGE","ARG_OF_PERICENTER":"71.9558","EPHEMERIS_TYPE":"0","SITE":"AFETR","NORAD_CAT_ID":"49761","CENTER_NAME":"EARTH","GP_ID":"234518229","REV_AT_EPOCH":"8740","LAUNCH_DATE":"2021-12-02","OBJECT_ID":"2021-115AP","MEAN_ANOMALY":"288.1520","OBJECT_NAME":"STARLINK-3203","SEMIMAJOR_AXIS":"6917.895","COUNTRY_CODE":"US","APOAPSIS":"540.302","ELEMENT_SET_NO":"999","PERIOD":"95.438"},{"LAUNCH_DATE":"2021-12-02","REV_AT_EPOCH":"8746","OBJECT_ID":"2021-115AQ","MEAN_ANOMALY":"268.2814","EPHEMERIS_TYPE":"0","NORAD_CAT_ID":"49762","CENTER_NAME":"EARTH","SITE":"AFETR","GP_ID":"234531963","COUNTRY_CODE":"US","APOAPSIS":"540.393","ELEMENT_SET_NO":"999","PERIOD":"95.437","OBJECT_NAME":"STARLINK-3195","SEMIMAJOR_AXIS":"6917.877","REF_FRAME":"TEME","ECCENTRICITY":"0.00009410","MEAN_MOTION_DDOT":"0.0000000000000","TLE_LINE1":"1 49762U 21115AQ  23175.54617768  .00000705  00000-0  62365-4 0  9998","TIME_SYSTEM":"UTC","DECAY_DATE":null,"INCLINATION":"53.2178","BSTAR":"0.00006236500000","OBJECT_TYPE":"PAYLOAD","MEAN_ELEMENT_THEORY":"SGP4","FILE":"3941930","PERIAPSIS":"539.091","EPOCH":"2023-06-24T13:06:29.751552","RCS_SIZE":"LARGE","ARG_OF_PERICENTER":"91.8286","MEAN_MOTION_DOT":"0.00000705","CLASSIFICATION_TYPE":"U","MEAN_MOTION":"15.08841240","RA_OF_ASC_NODE":"259.5584","TLE_LINE2":"2 49762  53.2178 259.5584 0000941  91.8286 268.2814 15.08841240 87461"},{"OBJECT_NAME":"STARLINK-3198","SEMIMAJOR_AXIS":"6917.896","APOAPSIS":"540.549","COUNTRY_CODE":"US","ELEMENT_SET_NO":"999","PERIOD":"95.438","SITE":"AFETR","NORAD_CAT_ID":"49763","CENTER_NAME":"EARTH","EPHEMERIS_TYPE":"0","GP_ID":"234525811","OBJECT_ID":"2021-115AR","LAUNCH_DATE":"2021-12-02","REV_AT_EPOCH":"8742","MEAN_ANOMALY":"275.8383","CLASSIFICATION_TYPE":"U","MEAN_MOTION_DOT":"0.00000138","RA_OF_ASC_NODE":"260.7984","TLE_LINE2":"2 49763  53.2159 260.7984 0001139  84.2739 275.8383 15.08834869 87428","MEAN_MOTION":"15.08834869","EPOCH":"2023-06-24T06:29:03.346368","PERIAPSIS":"538.973","FILE":"3941654","MEAN_ELEMENT_THEORY":"SGP4","OBJECT_TYPE":"PAYLOAD","ARG_OF_PERICENTER":"84.2739","RCS_SIZE":"LARGE","TLE_LINE1":"1 49763U 21115AR  23175.27017762  .00000138  00000-0  26779-4 0  9996","MEAN_MOTION_DDOT":"0.0000000000000","ECCENTRICITY":"0.00011390","BSTAR":"0.00002677900000","INCLINATION":"53.2159","DECAY_DATE":null,"TIME_SYSTEM":"UTC","REF_FRAME":"TEME"},{"MEAN_ANOMALY":"280.3228","LAUNCH_DATE":"2021-12-02","REV_AT_EPOCH":"8747","OBJECT_ID":"2021-115AS","GP_ID":"234531960","EPHEMERIS_TYPE":"0","NORAD_CAT_ID":"49764","CENTER_NAME":"EARTH","SITE":"AFETR","ELEMENT_SET_NO":"999","PERIOD":"95.437","COUNTRY_CODE":"US","APOAPSIS":"540.410","SEMIMAJOR_AXIS":"6917.869","OBJECT_NAME":"STARLINK-3206","REF_FRAME":"TEME","TIME_SYSTEM":"UTC","DECAY_DATE":null,"INCLINATION":"53.2160","BSTAR":"0.00011242000000","ECCENTRICITY":"0.00009770","MEAN_MOTION_DDOT":"0.0000000000000","TLE_LINE1":"1 49764U 21115AS  23175.61977634  .00001502  00000-0  11242-3 0  9992","RCS_SIZE":"LARGE","ARG_OF_PERICENTER":"79.7874","OBJECT_TYPE":"PAYLOAD","MEAN_ELEMENT_THEORY":"SGP4","FILE":"3941930","PERIAPSIS":"539.058","EPOCH":"2023-06-24T14:52:28.675776","MEAN_MOTION":"15.08843665","TLE_LINE2":"2 49764  53.2160 259.2271 0000977  79.7874 280.3228 15.08843665 87479","RA_OF_ASC_NODE":"259.2271","MEAN_MOTION_DOT":"0.00001502","CLASSIFICATION_TYPE":"U"},{"CLASSIFICATION_TYPE":"U","MEAN_MOTION_DOT":"-0.00001044","RA_OF_ASC_NODE":"261.0692","TLE_LINE2":"2 49765  53.2156 261.0692 0001251  90.8161 269.2975 15.08837612 87416","MEAN_MOTION":"15.08837612","EPOCH":"2023-06-24T05:05:38.584896","PERIAPSIS":"538.887","MEAN_ELEMENT_THEORY":"SGP4","FILE":"3941654","OBJECT_TYPE":"PAYLOAD","ARG_OF_PERICENTER":"90.8161","RCS_SIZE":"LARGE","TLE_LINE1":"1 49765U 21115AT  23175.21225214 -.00001044  00000-0 -47493-4 0  9990","MEAN_MOTION_DDOT":"0.0000000000000","ECCENTRICITY":"0.00012510","BSTAR":"-0.00004749300000","INCLINATION":"53.2156","DECAY_DATE":null,"TIME_SYSTEM":"UTC","REF_FRAME":"TEME","OBJECT_NAME":"STARLINK-3227","SEMIMAJOR_AXIS":"6917.888","APOAPSIS":"540.618","COUNTRY_CODE":"US","PERIOD":"95.438","ELEMENT_SET_NO":"999","SITE":"AFETR","CENTER_NAME":"EARTH","NORAD_CAT_ID":"49765","EPHEMERIS_TYPE":"0","GP_ID":"234525302","OBJECT_ID":"2021-115AT","REV_AT_EPOCH":"8741","LAUNCH_DATE":"2021-12-02","MEAN_ANOMALY":"269.2975"},{"PERIAPSIS":"539.084","EPOCH":"2023-06-24T05:26:50.423136","FILE":"3941654","MEAN_ELEMENT_THEORY":"SGP4","OBJECT_TYPE":"PAYLOAD","ARG_OF_PERICENTER":"90.2207","RCS_SIZE":"LARGE","CLASSIFICATION_TYPE":"U","MEAN_MOTION_DOT":"0.00001588","TLE_LINE2":"2 49766  53.2147 261.0031 0000951  90.2207 269.8895 15.08841072 87417","RA_OF_ASC_NODE":"261.0031","MEAN_MOTION":"15.08841072","REF_FRAME":"TEME","MEAN_MOTION_DDOT":"0.0000000000000","TLE_LINE1":"1 49766U 21115AU  23175.22697249  .00001588  00000-0  11781-3 0  9994","ECCENTRICITY":"0.00009510","INCLINATION":"53.2147","BSTAR":"0.00011781000000","DECAY_DATE":null,"TIME_SYSTEM":"UTC","APOAPSIS":"540.400","COUNTRY_CODE":"US","ELEMENT_SET_NO":"999","PERIOD":"95.437","OBJECT_NAME":"STARLINK-3190","SEMIMAJOR_AXIS":"6917.877","OBJECT_ID":"2021-115AU","LAUNCH_DATE":"2021-12-02","REV_AT_EPOCH":"8741","MEAN_ANOMALY":"269.8895","SITE":"AFETR","NORAD_CAT_ID":"49766","CENTER_NAME":"EARTH","EPHEMERIS_TYPE":"0","GP_ID":"234525311"},{"DECAY_DATE":null,"TIME_SYSTEM":"UTC","INCLINATION":"53.2160","BSTAR":"0.00000605840000","ECCENTRICITY":"0.00009180","MEAN_MOTION_DDOT":"0.0000000000000","TLE_LINE1":"1 49767U 21115AV  23174.95369289 -.00000191  00000-0  60584-5 0  9991","REF_FRAME":"TEME","MEAN_MOTION":"15.08838619","TLE_LINE2":"2 49767  53.2160 262.2195 0000918  84.4243 275.6854 15.08838619 87373","RA_OF_ASC_NODE":"262.2195","MEAN_MOTION_DOT":"-0.00000191","CLASSIFICATION_TYPE":"U","RCS_SIZE":"LARGE","ARG_OF_PERICENTER":"84.4243","OBJECT_TYPE":"PAYLOAD","EPOCH":"2023-06-23T22:53:19.065696","PERIAPSIS":"539.115","MEAN_ELEMENT_THEORY":"SGP4","FILE":"3941338","GP_ID":"234518201","EPHEMERIS_TYPE":"0","SITE":"AFETR","NORAD_CAT_ID":"49767","CENTER_NAME":"EARTH","MEAN_ANOMALY":"275.6854","REV_AT_EPOCH":"8737","LAUNCH_DATE":"2021-12-02","OBJECT_ID":"2021-115AV","SEMIMAJOR_AXIS":"6917.885","OBJECT_NAME":"STARLINK-3192","PERIOD":"95.438","ELEMENT_SET_NO":"999","COUNTRY_CODE":"US","APOAPSIS":"540.385"},{"MEAN_ELEMENT_THEORY":"SGP4","FILE":"3941675","PERIAPSIS":"538.998","EPOCH":"2023-06-24T05:36:03.678624","OBJECT_TYPE":"PAYLOAD","ARG_OF_PERICENTER":"79.9668","RCS_SIZE":"LARGE","CLASSIFICATION_TYPE":"U","MEAN_MOTION_DOT":"0.00001211","TLE_LINE2":"2 49768  53.2148 260.9637 0001083  79.9668 280.1446 15.08839243 87417","RA_OF_ASC_NODE":"260.9637","MEAN_MOTION":"15.08839243","REF_FRAME":"TEME","TLE_LINE1":"1 49768U 21115AW  23175.23337591  .00001211  00000-0  94141-4 0  9993","MEAN_MOTION_DDOT":"0.0000000000000","ECCENTRICITY":"0.00010830","BSTAR":"0.00009414100000","INCLINATION":"53.2148","TIME_SYSTEM":"UTC","DECAY_DATE":null,"APOAPSIS":"540.497","COUNTRY_CODE":"US","ELEMENT_SET_NO":"999","PERIOD":"95.438","OBJECT_NAME":"STARLINK-3196","SEMIMAJOR_AXIS":"6917.883","OBJECT_ID":"2021-115AW","LAUNCH_DATE":"2021-12-02","REV_AT_EPOCH":"8741","MEAN_ANOMALY":"280.1446","NORAD_CAT_ID":"49768","CENTER_NAME":"EARTH","SITE":"AFETR","EPHEMERIS_TYPE":"0","GP_ID":"234525317"},{"REF_FRAME":"TEME","ECCENTRICITY":"0.00006300","TLE_LINE1":"1 49769U 21115AX  23175.49930067 -.00000580  00000-0 -18351-4 0  9998","MEAN_MOTION_DDOT":"0.0000000000000","TIME_SYSTEM":"UTC","DECAY_DATE":null,"BSTAR":"-0.00001835100000","INCLINATION":"53.2146","OBJECT_TYPE":"PAYLOAD","MEAN_ELEMENT_THEORY":"SGP4","FILE":"3941912","PERIAPSIS":"539.318","EPOCH":"2023-06-24T11:58:59.577888","RCS_SIZE":"LARGE","ARG_OF_PERICENTER":"88.4405","MEAN_MOTION_DOT":"-0.00000580","CLASSIFICATION_TYPE":"U","MEAN_MOTION":"15.08837123","TLE_LINE2":"2 49769  53.2146 259.8212 0000630  88.4405 271.6660 15.08837123 87455","RA_OF_ASC_NODE":"259.8212","LAUNCH_DATE":"2021-12-02","REV_AT_EPOCH":"8745","OBJECT_ID":"2021-115AX","MEAN_ANOMALY":"271.6660","EPHEMERIS_TYPE":"0","NORAD_CAT_ID":"49769","CENTER_NAME":"EARTH","SITE":"AFETR","GP_ID":"234532395","COUNTRY_CODE":"US","APOAPSIS":"540.190","PERIOD":"95.438","ELEMENT_SET_NO":"999","OBJECT_NAME":"STARLINK-3208","SEMIMAJOR_AXIS":"6917.889"},{"PERIOD":"95.437","ELEMENT_SET_NO":"999","APOAPSIS":"540.344","COUNTRY_CODE":"US","SEMIMAJOR_AXIS":"6917.864","OBJECT_NAME":"STARLINK-3191","MEAN_ANOMALY":"266.4523","OBJECT_ID":"2021-115AY","REV_AT_EPOCH":"8745","LAUNCH_DATE":"2021-12-02","GP_ID":"234532464","NORAD_CAT_ID":"49770","CENTER_NAME":"EARTH","SITE":"AFETR","EPHEMERIS_TYPE":"0","ARG_OF_PERICENTER":"93.6571","RCS_SIZE":"LARGE","FILE":"3941930","MEAN_ELEMENT_THEORY":"SGP4","EPOCH":"2023-06-24T12:09:35.202816","PERIAPSIS":"539.115","OBJECT_TYPE":"PAYLOAD","TLE_LINE2":"2 49770  53.2174 259.7843 0000888  93.6571 266.4523 15.08845297 87455","RA_OF_ASC_NODE":"259.7843","MEAN_MOTION":"15.08845297","CLASSIFICATION_TYPE":"U","MEAN_MOTION_DOT":"0.00000457","REF_FRAME":"TEME","INCLINATION":"53.2174","BSTAR":"0.00004676100000","TIME_SYSTEM":"UTC","DECAY_DATE":null,"TLE_LINE1":"1 49770U 21115AY  23175.50665744  .00000457  00000-0  46761-4 0  9996","MEAN_MOTION_DDOT":"0.0000000000000","ECCENTRICITY":"0.00008880"}];
